{
"type": "FeatureCollection",
"name": "education_investment_zone",
"crs": { "type": "name", "properties": { "name": "urn:ogc:def:crs:OGC:1.3:CRS84" } },
"features": [
{ "type": "Feature", "properties": { "region": "Addis Ababa", "zone": "", "woreda": "Addis Ketema", "num_farmers": 0.0, "ai_crop_advisory_adoption": null, "ai_livestock_advisory_adoption": null, "ai_driven_technology_adoption": null, "land_size_ha": null, "farming_experience_years": null, "credit_access": null, "extension_access": null, "distance_to_market_km": null, "travel_time_to_extension": null, "policy_effect": null, "baseline_adoption_prob": null, "counterfactual_adoption_prob": null, "scenario": null }, "geometry": { "type": "MultiPoint", "coordinates": [ [ 38.0, 9.0 ], [ 39.0, 9.0 ] ] } },
{ "type": "Feature", "properties": { "region": "Afar", "zone": "Zone 1 (Awsi Rasu)", "woreda": "Amibara", "num_farmers": 211.0, "ai_crop_advisory_adoption": 0.62559241706161139, "ai_livestock_advisory_adoption": 0.52606635071090047, "ai_driven_technology_adoption": 0.79146919431279616, "land_size_ha": 2.1524170616113745, "farming_experience_years": 29.654028436018958, "credit_access": 0.51658767772511849, "extension_access": 0.51658767772511849, "distance_to_market_km": 5.6962085308056878, "travel_time_to_extension": 1.6440758293838862, "policy_effect": 0.0, "baseline_adoption_prob": 1.0, "counterfactual_adoption_prob": 1.0, "scenario": "education_investment" }, "geometry": { "type": "MultiPoint", "coordinates": [ [ 40.0, 9.0 ], [ 41.0, 9.0 ] ] } },
{ "type": "Feature", "properties": { "region": "Afar", "zone": "Zone 3 (Gabirasu)", "woreda": "Gewane", "num_farmers": 89.0, "ai_crop_advisory_adoption": 0.6741573033707865, "ai_livestock_advisory_adoption": 0.5730337078651685, "ai_driven_technology_adoption": 0.8089887640449438, "land_size_ha": 2.3492134831460678, "farming_experience_years": 30.629213483146067, "credit_access": 0.43820224719101125, "extension_access": 0.5168539325842697, "distance_to_market_km": 6.0415730337078655, "travel_time_to_extension": 1.2483146067415729, "policy_effect": 0.0, "baseline_adoption_prob": 1.0, "counterfactual_adoption_prob": 1.0, "scenario": "education_investment" }, "geometry": { "type": "Point", "coordinates": [ 42.0, 9.0 ] } },
{ "type": "Feature", "properties": { "region": "Amhara", "zone": "North Gondar", "woreda": "Gondar Zuria", "num_farmers": 101.0, "ai_crop_advisory_adoption": 0.67326732673267331, "ai_livestock_advisory_adoption": 0.5544554455445545, "ai_driven_technology_adoption": 0.81188118811881194, "land_size_ha": 2.3733663366336635, "farming_experience_years": 29.85148514851485, "credit_access": 0.45544554455445535, "extension_access": 0.50495049504950495, "distance_to_market_km": 7.1029702970297031, "travel_time_to_extension": 1.7574257425742574, "policy_effect": 0.0, "baseline_adoption_prob": 1.0, "counterfactual_adoption_prob": 1.0, "scenario": "education_investment" }, "geometry": { "type": "Point", "coordinates": [ 38.0, 10.0 ] } },
{ "type": "Feature", "properties": { "region": "Amhara", "zone": "South Wollo", "woreda": "Dessie Zuria", "num_farmers": 93.0, "ai_crop_advisory_adoption": 0.65591397849462363, "ai_livestock_advisory_adoption": 0.4946236559139785, "ai_driven_technology_adoption": 0.82795698924731187, "land_size_ha": 2.2701075268817204, "farming_experience_years": 27.741935483870968, "credit_access": 0.46236559139784938, "extension_access": 0.55913978494623651, "distance_to_market_km": 5.7344086021505367, "travel_time_to_extension": 1.4580645161290322, "policy_effect": 0.0, "baseline_adoption_prob": 1.0, "counterfactual_adoption_prob": 1.0, "scenario": "education_investment" }, "geometry": { "type": "Point", "coordinates": [ 39.0, 10.0 ] } },
{ "type": "Feature", "properties": { "region": "Benishangul-Gumuz", "zone": "Assosa", "woreda": "Assosa", "num_farmers": 95.0, "ai_crop_advisory_adoption": 0.70526315789473681, "ai_livestock_advisory_adoption": 0.4631578947368421, "ai_driven_technology_adoption": 0.81052631578947365, "land_size_ha": 2.2994736842105263, "farming_experience_years": 28.989473684210527, "credit_access": 0.38947368421052631, "extension_access": 0.55789473684210522, "distance_to_market_km": 6.2484210526315804, "travel_time_to_extension": 1.5621052631578949, "policy_effect": 0.0, "baseline_adoption_prob": 1.0, "counterfactual_adoption_prob": 1.0, "scenario": "education_investment" }, "geometry": { "type": "Point", "coordinates": [ 40.0, 10.0 ] } },
{ "type": "Feature", "properties": { "region": "Dire Dawa", "zone": "", "woreda": "Dire Dawa Urban", "num_farmers": 0.0, "ai_crop_advisory_adoption": null, "ai_livestock_advisory_adoption": null, "ai_driven_technology_adoption": null, "land_size_ha": null, "farming_experience_years": null, "credit_access": null, "extension_access": null, "distance_to_market_km": null, "travel_time_to_extension": null, "policy_effect": null, "baseline_adoption_prob": null, "counterfactual_adoption_prob": null, "scenario": null }, "geometry": { "type": "Point", "coordinates": [ 41.0, 10.0 ] } },
{ "type": "Feature", "properties": { "region": "Gambela", "zone": "Nuer Zone", "woreda": "Itang", "num_farmers": 84.0, "ai_crop_advisory_adoption": 0.73809523809523814, "ai_livestock_advisory_adoption": 0.51190476190476186, "ai_driven_technology_adoption": 0.86904761904761907, "land_size_ha": 2.1245238095238097, "farming_experience_years": 28.285714285714285, "credit_access": 0.4642857142857143, "extension_access": 0.66666666666666663, "distance_to_market_km": 6.1261904761904766, "travel_time_to_extension": 1.4428571428571428, "policy_effect": 0.0, "baseline_adoption_prob": 1.0, "counterfactual_adoption_prob": 1.0, "scenario": "education_investment" }, "geometry": { "type": "Point", "coordinates": [ 42.0, 10.0 ] } },
{ "type": "Feature", "properties": { "region": "Harari", "zone": "", "woreda": "Harar City", "num_farmers": 0.0, "ai_crop_advisory_adoption": null, "ai_livestock_advisory_adoption": null, "ai_driven_technology_adoption": null, "land_size_ha": null, "farming_experience_years": null, "credit_access": null, "extension_access": null, "distance_to_market_km": null, "travel_time_to_extension": null, "policy_effect": null, "baseline_adoption_prob": null, "counterfactual_adoption_prob": null, "scenario": null }, "geometry": { "type": "Point", "coordinates": [ 38.0, 11.0 ] } },
{ "type": "Feature", "properties": { "region": "Oromia", "zone": "Arsi", "woreda": "Asella", "num_farmers": 145.0, "ai_crop_advisory_adoption": 0.62758620689655176, "ai_livestock_advisory_adoption": 0.55862068965517242, "ai_driven_technology_adoption": 0.8, "land_size_ha": 2.4717241379310342, "farming_experience_years": 29.137931034482758, "credit_access": 0.4, "extension_access": 0.53793103448275859, "distance_to_market_km": 6.0896551724137931, "travel_time_to_extension": 1.2931034482758621, "policy_effect": 0.0, "baseline_adoption_prob": 1.0, "counterfactual_adoption_prob": 1.0, "scenario": "education_investment" }, "geometry": { "type": "Point", "coordinates": [ 39.0, 11.0 ] } },
{ "type": "Feature", "properties": { "region": "Oromia", "zone": "Jimma", "woreda": "Jimma Town", "num_farmers": 106.0, "ai_crop_advisory_adoption": 0.660377358490566, "ai_livestock_advisory_adoption": 0.5, "ai_driven_technology_adoption": 0.80188679245283023, "land_size_ha": 2.4179245283018869, "farming_experience_years": 28.764150943396228, "credit_access": 0.42452830188679236, "extension_access": 0.55660377358490565, "distance_to_market_km": 5.6273584905660377, "travel_time_to_extension": 1.1603773584905659, "policy_effect": 0.0, "baseline_adoption_prob": 1.0, "counterfactual_adoption_prob": 1.0, "scenario": "education_investment" }, "geometry": { "type": "Point", "coordinates": [ 40.0, 11.0 ] } },
{ "type": "Feature", "properties": { "region": "SNNP", "zone": "Gurage", "woreda": "Wolkite", "num_farmers": 82.0, "ai_crop_advisory_adoption": 0.6097560975609756, "ai_livestock_advisory_adoption": 0.48780487804878048, "ai_driven_technology_adoption": 0.78048780487804881, "land_size_ha": 2.2047560975609755, "farming_experience_years": 27.475609756097562, "credit_access": 0.45121951219512196, "extension_access": 0.53658536585365857, "distance_to_market_km": 6.0707317073170737, "travel_time_to_extension": 1.7170731707317075, "policy_effect": 0.0, "baseline_adoption_prob": 1.0, "counterfactual_adoption_prob": 1.0, "scenario": "education_investment" }, "geometry": { "type": "Point", "coordinates": [ 41.0, 11.0 ] } },
{ "type": "Feature", "properties": { "region": "Sidama", "zone": "Hawassa City Admin", "woreda": "Hawassa", "num_farmers": 111.0, "ai_crop_advisory_adoption": 0.72072072072072069, "ai_livestock_advisory_adoption": 0.55855855855855852, "ai_driven_technology_adoption": 0.83783783783783783, "land_size_ha": 2.177837837837838, "farming_experience_years": 29.27027027027027, "credit_access": 0.52252252252252251, "extension_access": 0.61261261261261257, "distance_to_market_km": 5.9324324324324325, "travel_time_to_extension": 1.6792792792792792, "policy_effect": 0.0, "baseline_adoption_prob": 1.0, "counterfactual_adoption_prob": 1.0, "scenario": "education_investment" }, "geometry": { "type": "Point", "coordinates": [ 42.0, 11.0 ] } },
{ "type": "Feature", "properties": { "region": "Somali", "zone": "Jijiga", "woreda": "Jijiga", "num_farmers": 140.0, "ai_crop_advisory_adoption": 0.68571428571428572, "ai_livestock_advisory_adoption": 0.55, "ai_driven_technology_adoption": 0.83571428571428574, "land_size_ha": 2.1987142857142858, "farming_experience_years": 30.435714285714287, "credit_access": 0.45, "extension_access": 0.56428571428571428, "distance_to_market_km": 6.33, "travel_time_to_extension": 1.4785714285714286, "policy_effect": 0.0, "baseline_adoption_prob": 1.0, "counterfactual_adoption_prob": 1.0, "scenario": "education_investment" }, "geometry": { "type": "Point", "coordinates": [ 38.0, 12.0 ] } },
{ "type": "Feature", "properties": { "region": "South West Ethiopia", "zone": "Bench Sheko", "woreda": "Mizan Aman", "num_farmers": 131.0, "ai_crop_advisory_adoption": 0.74045801526717558, "ai_livestock_advisory_adoption": 0.5725190839694656, "ai_driven_technology_adoption": 0.89312977099236646, "land_size_ha": 2.1454198473282444, "farming_experience_years": 29.351145038167939, "credit_access": 0.48854961832061061, "extension_access": 0.5419847328244275, "distance_to_market_km": 5.9793893129770987, "travel_time_to_extension": 1.5770992366412211, "policy_effect": 0.0, "baseline_adoption_prob": 1.0, "counterfactual_adoption_prob": 1.0, "scenario": "education_investment" }, "geometry": { "type": "Point", "coordinates": [ 39.0, 12.0 ] } },
{ "type": "Feature", "properties": { "region": "Tigray", "zone": "Central Tigray", "woreda": "Axum", "num_farmers": 99.0, "ai_crop_advisory_adoption": 0.6262626262626263, "ai_livestock_advisory_adoption": 0.58585858585858586, "ai_driven_technology_adoption": 0.81818181818181823, "land_size_ha": 2.0560606060606061, "farming_experience_years": 30.797979797979799, "credit_access": 0.48484848484848475, "extension_access": 0.54545454545454541, "distance_to_market_km": 8.2949494949494955, "travel_time_to_extension": 1.315151515151515, "policy_effect": 0.0, "baseline_adoption_prob": 1.0, "counterfactual_adoption_prob": 1.0, "scenario": "education_investment" }, "geometry": { "type": "Point", "coordinates": [ 42.0, 12.0 ] } },
{ "type": "Feature", "properties": { "region": "Tigray", "zone": "North Western Tigray", "woreda": "Laelay Adiabo", "num_farmers": 256.0, "ai_crop_advisory_adoption": 0.68359375, "ai_livestock_advisory_adoption": 0.5390625, "ai_driven_technology_adoption": 0.84765625, "land_size_ha": 2.0448046875000001, "farming_experience_years": 30.46875, "credit_access": 0.37890625, "extension_access": 0.51953125, "distance_to_market_km": 6.131640625, "travel_time_to_extension": 1.51015625, "policy_effect": 0.0, "baseline_adoption_prob": 1.0, "counterfactual_adoption_prob": 1.0, "scenario": "education_investment" }, "geometry": { "type": "MultiPoint", "coordinates": [ [ 40.0, 12.0 ], [ 41.0, 12.0 ] ] } }
]
}
