{
"type": "FeatureCollection",
"name": "full_transformation_package_region",
"crs": { "type": "name", "properties": { "name": "urn:ogc:def:crs:OGC:1.3:CRS84" } },
"features": [
{ "type": "Feature", "properties": { "region": "Addis Ababa", "zone": "", "woreda": "Addis Ketema", "num_farmers": 0.0, "ai_crop_advisory_adoption": null, "ai_livestock_advisory_adoption": null, "ai_driven_technology_adoption": null, "land_size_ha": null, "farming_experience_years": null, "credit_access": null, "extension_access": null, "distance_to_market_km": null, "travel_time_to_extension": null, "policy_effect": 0.0, "baseline_adoption_prob": 1.0, "counterfactual_adoption_prob": 1.0, "scenario": "full_transformation_package" }, "geometry": { "type": "MultiPoint", "coordinates": [ [ 38.0, 9.0 ], [ 39.0, 9.0 ] ] } },
{ "type": "Feature", "properties": { "region": "Afar", "zone": "Zone 1 (Awsi Rasu)", "woreda": "Amibara", "num_farmers": 300.0, "ai_crop_advisory_adoption": 0.64, "ai_livestock_advisory_adoption": 0.54, "ai_driven_technology_adoption": 0.79666666666666663, "land_size_ha": 2.2108, "farming_experience_years": 29.943333333333332, "credit_access": 0.49333333333333335, "extension_access": 0.51666666666666672, "distance_to_market_km": 5.7986666666666675, "travel_time_to_extension": 1.5266666666666666, "policy_effect": 0.0, "baseline_adoption_prob": 1.0, "counterfactual_adoption_prob": 1.0, "scenario": "full_transformation_package" }, "geometry": { "type": "MultiPoint", "coordinates": [ [ 40.0, 9.0 ], [ 41.0, 9.0 ], [ 42.0, 9.0 ] ] } },
{ "type": "Feature", "properties": { "region": "Amhara", "zone": "North Gondar", "woreda": "Gondar Zuria", "num_farmers": 194.0, "ai_crop_advisory_adoption": 0.66494845360824739, "ai_livestock_advisory_adoption": 0.52577319587628868, "ai_driven_technology_adoption": 0.81958762886597936, "land_size_ha": 2.3238659793814436, "farming_experience_years": 28.840206185567009, "credit_access": 0.45876288659793807, "extension_access": 0.53092783505154639, "distance_to_market_km": 6.4469072164948447, "travel_time_to_extension": 1.6139175257731959, "policy_effect": 0.0, "baseline_adoption_prob": 1.0, "counterfactual_adoption_prob": 1.0, "scenario": "full_transformation_package" }, "geometry": { "type": "MultiPoint", "coordinates": [ [ 38.0, 10.0 ], [ 39.0, 10.0 ] ] } },
{ "type": "Feature", "properties": { "region": "Benishangul-Gumuz", "zone": "Assosa", "woreda": "Assosa", "num_farmers": 95.0, "ai_crop_advisory_adoption": 0.70526315789473681, "ai_livestock_advisory_adoption": 0.4631578947368421, "ai_driven_technology_adoption": 0.81052631578947365, "land_size_ha": 2.2994736842105263, "farming_experience_years": 28.989473684210527, "credit_access": 0.38947368421052631, "extension_access": 0.55789473684210522, "distance_to_market_km": 6.2484210526315804, "travel_time_to_extension": 1.5621052631578949, "policy_effect": 0.0, "baseline_adoption_prob": 1.0, "counterfactual_adoption_prob": 1.0, "scenario": "full_transformation_package" }, "geometry": { "type": "Point", "coordinates": [ 40.0, 10.0 ] } },
{ "type": "Feature", "properties": { "region": "Dire Dawa", "zone": "", "woreda": "Dire Dawa Urban", "num_farmers": 0.0, "ai_crop_advisory_adoption": null, "ai_livestock_advisory_adoption": null, "ai_driven_technology_adoption": null, "land_size_ha": null, "farming_experience_years": null, "credit_access": null, "extension_access": null, "distance_to_market_km": null, "travel_time_to_extension": null, "policy_effect": 0.0, "baseline_adoption_prob": 1.0, "counterfactual_adoption_prob": 1.0, "scenario": "full_transformation_package" }, "geometry": { "type": "Point", "coordinates": [ 41.0, 10.0 ] } },
{ "type": "Feature", "properties": { "region": "Gambela", "zone": "Nuer Zone", "woreda": "Itang", "num_farmers": 84.0, "ai_crop_advisory_adoption": 0.73809523809523814, "ai_livestock_advisory_adoption": 0.51190476190476186, "ai_driven_technology_adoption": 0.86904761904761907, "land_size_ha": 2.1245238095238097, "farming_experience_years": 28.285714285714285, "credit_access": 0.4642857142857143, "extension_access": 0.66666666666666663, "distance_to_market_km": 6.1261904761904766, "travel_time_to_extension": 1.4428571428571428, "policy_effect": 0.0, "baseline_adoption_prob": 1.0, "counterfactual_adoption_prob": 1.0, "scenario": "full_transformation_package" }, "geometry": { "type": "Point", "coordinates": [ 42.0, 10.0 ] } },
{ "type": "Feature", "properties": { "region": "Harari", "zone": "", "woreda": "Harar City", "num_farmers": 0.0, "ai_crop_advisory_adoption": null, "ai_livestock_advisory_adoption": null, "ai_driven_technology_adoption": null, "land_size_ha": null, "farming_experience_years": null, "credit_access": null, "extension_access": null, "distance_to_market_km": null, "travel_time_to_extension": null, "policy_effect": 0.0, "baseline_adoption_prob": 1.0, "counterfactual_adoption_prob": 1.0, "scenario": "full_transformation_package" }, "geometry": { "type": "Point", "coordinates": [ 38.0, 11.0 ] } },
{ "type": "Feature", "properties": { "region": "Oromia", "zone": "Arsi", "woreda": "Asella", "num_farmers": 251.0, "ai_crop_advisory_adoption": 0.64143426294820716, "ai_livestock_advisory_adoption": 0.53386454183266929, "ai_driven_technology_adoption": 0.80079681274900394, "land_size_ha": 2.4490039840637454, "farming_experience_years": 28.980079681274901, "credit_access": 0.41035856573705182, "extension_access": 0.54581673306772904, "distance_to_market_km": 5.8944223107569718, "travel_time_to_extension": 1.2370517928286853, "policy_effect": 0.0, "baseline_adoption_prob": 1.0, "counterfactual_adoption_prob": 1.0, "scenario": "full_transformation_package" }, "geometry": { "type": "MultiPoint", "coordinates": [ [ 39.0, 11.0 ], [ 40.0, 11.0 ] ] } },
{ "type": "Feature", "properties": { "region": "SNNP", "zone": "Gurage", "woreda": "Wolkite", "num_farmers": 82.0, "ai_crop_advisory_adoption": 0.6097560975609756, "ai_livestock_advisory_adoption": 0.48780487804878048, "ai_driven_technology_adoption": 0.78048780487804881, "land_size_ha": 2.2047560975609755, "farming_experience_years": 27.475609756097562, "credit_access": 0.45121951219512196, "extension_access": 0.53658536585365857, "distance_to_market_km": 6.0707317073170737, "travel_time_to_extension": 1.7170731707317075, "policy_effect": 0.0, "baseline_adoption_prob": 1.0, "counterfactual_adoption_prob": 1.0, "scenario": "full_transformation_package" }, "geometry": { "type": "Point", "coordinates": [ 41.0, 11.0 ] } },
{ "type": "Feature", "properties": { "region": "Sidama", "zone": "Hawassa City Admin", "woreda": "Hawassa", "num_farmers": 111.0, "ai_crop_advisory_adoption": 0.72072072072072069, "ai_livestock_advisory_adoption": 0.55855855855855852, "ai_driven_technology_adoption": 0.83783783783783783, "land_size_ha": 2.177837837837838, "farming_experience_years": 29.27027027027027, "credit_access": 0.52252252252252251, "extension_access": 0.61261261261261257, "distance_to_market_km": 5.9324324324324325, "travel_time_to_extension": 1.6792792792792792, "policy_effect": 0.0, "baseline_adoption_prob": 1.0, "counterfactual_adoption_prob": 1.0, "scenario": "full_transformation_package" }, "geometry": { "type": "Point", "coordinates": [ 42.0, 11.0 ] } },
{ "type": "Feature", "properties": { "region": "Somali", "zone": "Jijiga", "woreda": "Jijiga", "num_farmers": 140.0, "ai_crop_advisory_adoption": 0.68571428571428572, "ai_livestock_advisory_adoption": 0.55, "ai_driven_technology_adoption": 0.83571428571428574, "land_size_ha": 2.1987142857142858, "farming_experience_years": 30.435714285714287, "credit_access": 0.45, "extension_access": 0.56428571428571428, "distance_to_market_km": 6.33, "travel_time_to_extension": 1.4785714285714286, "policy_effect": 0.0, "baseline_adoption_prob": 1.0, "counterfactual_adoption_prob": 1.0, "scenario": "full_transformation_package" }, "geometry": { "type": "Point", "coordinates": [ 38.0, 12.0 ] } },
{ "type": "Feature", "properties": { "region": "South West Ethiopia", "zone": "Bench Sheko", "woreda": "Mizan Aman", "num_farmers": 131.0, "ai_crop_advisory_adoption": 0.74045801526717558, "ai_livestock_advisory_adoption": 0.5725190839694656, "ai_driven_technology_adoption": 0.89312977099236646, "land_size_ha": 2.1454198473282444, "farming_experience_years": 29.351145038167939, "credit_access": 0.48854961832061061, "extension_access": 0.5419847328244275, "distance_to_market_km": 5.9793893129770987, "travel_time_to_extension": 1.5770992366412211, "policy_effect": 0.0, "baseline_adoption_prob": 1.0, "counterfactual_adoption_prob": 1.0, "scenario": "full_transformation_package" }, "geometry": { "type": "Point", "coordinates": [ 39.0, 12.0 ] } },
{ "type": "Feature", "properties": { "region": "Tigray", "zone": "Central Tigray", "woreda": "Axum", "num_farmers": 355.0, "ai_crop_advisory_adoption": 0.6676056338028169, "ai_livestock_advisory_adoption": 0.55211267605633807, "ai_driven_technology_adoption": 0.83943661971830985, "land_size_ha": 2.0479436619718308, "farming_experience_years": 30.560563380281689, "credit_access": 0.40845070422535212, "extension_access": 0.52676056338028165, "distance_to_market_km": 6.7349295774647873, "travel_time_to_extension": 1.4557746478873239, "policy_effect": 0.0, "baseline_adoption_prob": 1.0, "counterfactual_adoption_prob": 1.0, "scenario": "full_transformation_package" }, "geometry": { "type": "MultiPoint", "coordinates": [ [ 40.0, 12.0 ], [ 41.0, 12.0 ], [ 42.0, 12.0 ] ] } }
]
}
